#aV2015  8 18  0  0  0.00000000     288 DD+AD WGS84 FIT  NGA
## 1858 172800.00000000   300.00000000 57252 0.0000000000000
+   31     1  2  3  4  5  6  7  8  9 11 12 13 14 15 16 17 18
+         19 20 21 22 23 24 25 26 27 28 29 30 31 32  0  0  0
+          0  0  0  0  0  0  0  0  0  0  0  0  0  0  0  0  0
+          0  0  0  0  0  0  0  0  0  0  0  0  0  0  0  0  0
+          0  0  0  0  0  0  0  0  0  0  0  0  0  0  0  0  0
++         2  2  2  2  2  2  2  2  2  2  2  2  2  2  2  2  2
++         2  2  2  2  2  2  2  2  2  2  2  2  2  2  0  0  0
++         0  0  0  0  0  0  0  0  0  0  0  0  0  0  0  0  0
++         0  0  0  0  0  0  0  0  0  0  0  0  0  0  0  0  0
++         0  0  0  0  0  0  0  0  0  0  0  0  0  0  0  0  0
%c cc cc ccc ccc cccc cccc cccc cccc ccccc ccccc ccccc ccccc
%c cc cc ccc ccc cccc cccc cccc cccc ccccc ccccc ccccc ccccc
%f  0.0000000  0.000000000  0.00000000000  0.000000000000000
%f  0.0000000  0.000000000  0.00000000000  0.000000000000000
%i    0    0    0    0      0      0      0      0         0
%i    0    0    0    0      0      0      0      0         0
/*      NGA, ST. LOUIS,MO.                                  
/*   EPHEMERIS COMPUTED FROM  1 DAYS OF DATA                
/*   EPOCHA SMOOTHER                                       
/* CCCCCCCCCCCCCCCCCCCCCCCCCCCCCCCCCCCCCCCCCCCCCCCCCCCCCCCCC
*  2015  8 18 17  5  0.00000000
P  1  13684.104696  -8982.279252  20811.334108     -1.037929                    
V  1   3429.147381  26405.588643   9309.797060      0.006348                    
P  2 -13951.146276 -15738.179980 -16095.155456    584.673107                    
V  2   -750.264028 -21118.148825  20375.967874      0.019379                    
P  3  22841.554765 -12949.816916   4109.202311     16.956616                    
V  3  -2579.300384   5308.307690  31135.186498      0.026932                    
P  4  15670.309205   1702.547312  21059.624305    -11.443110                    
V  4   2921.886338  27437.268777  -4061.508268     -0.036321                    
P  5 -18050.011966  -3904.493758 -19209.288701   -205.166958                    
V  5  18732.538494 -15484.097154 -14304.718444      0.041860                    
P  6  -7762.784452 -24279.246434  -7485.685923     40.368228                    
V  6   1583.933180  -9712.338156  29863.121890      0.077172                    
P  7   6815.552089 -22204.853148 -12398.798286    480.589374                    
V  7   3630.956432  15829.281862 -26486.825521      0.019355                    
P  8  24308.656035   2874.890225  10328.801138     -2.179788                    
V  8  10920.070651   7595.743537 -27942.825889     -0.013810                    
P  9   9871.439258 -12176.369139 -21448.205019    -11.025108                    
V  9  24722.899815  11437.291312   4868.726639     -0.002139                    
P 11  15905.083089  -4495.587205  20255.359859   -598.685977                    
V 11  11431.206435  24753.580041  -3285.621050     -0.023886                    
P 12 -23483.366605  10179.305984   6559.674211    320.048989                    
V 12   6027.055385  -6307.901108  31072.510191      0.033976                    
P 13 -23204.735711 -12719.309516   1239.808272   -142.064851                    
V 13   -211.050561  -3062.512535 -32049.565809     -0.030769                    
P 14   7334.762686  18278.703532  18144.442769     40.890894                    
V 14 -20378.906498  -9544.592599  17952.770227     -0.026378                    
P 15 -24756.755853  -1839.332603   9789.014707   -266.764007                    
V 15 -10543.284007  -7400.988443 -27462.272790     -0.020774                    
P 16  17253.902502   4568.261493 -19874.544221    -96.066932                    
V 16 -20736.314869  13734.793212 -14550.280135      0.041121                    
P 17  -9022.073507 -18030.917895  17696.380873   -184.611313                    
V 17  20008.866764   8670.320432  19158.788452     -0.014124                    
P 18 -11723.180794  20532.933319  12316.296774    426.542542                    
V 18 -13986.083154   6470.227132 -25429.317841      0.031712                    
P 19  23965.703398   5319.652915  10498.413284   -518.535869                    
V 19  10774.930185   8324.023791 -27798.899121     -0.007048                    
P 20 -22750.064830  11341.136349  -7994.307384    348.006775                    
V 20   5361.429496  -9126.516772 -28656.183567      0.031435                    
P 21  -3830.534489  24208.066783  -9093.038487   -472.976438                    
V 21  -5223.243905 -12149.061864 -28325.794505     -0.029690                    
P 22    691.853547  18093.647995  19619.219139    382.554159                    
V 22 -20580.211692  13565.063024 -12106.594623      0.038242                    
P 23  21260.770229  -2833.510333 -15775.200293   -127.947978                    
V 23  17586.556416  10126.235362  21218.758816     -0.022841                    
P 24 -14551.809217   6032.007376  21332.796262     -3.237422                    
V 24  -3804.247061 -26957.017333   5168.307589     -0.006431                    
P 25 -18668.428996  17996.691662  -5434.881634    -27.076122                    
V 25  -6854.040854   2105.444077  31253.832838     -0.048494                    
P 26   8464.538236  12661.658194 -21765.681616    -30.018383                    
V 26 -22365.942820  16210.851408    736.759827     -0.086440                    
P 27  23636.195983  12083.373815  -2099.676473     12.854162                    
V 27  -3403.460569   1200.494118 -31686.611015      0.028715                    
P 28   4897.766551 -18057.985722  19439.048266    461.428616                    
V 28  20290.596196 -11552.002920 -16454.959088      0.026587                    
P 29 -12431.115751   9860.889932 -21279.264978    628.805629                    
V 29 -23736.398170 -12922.279614   7913.222451      0.020500                    
P 30    536.247379 -26447.481773  -1838.054871      8.397502                    
V 30   3118.568590   2246.795376 -31573.326253      0.071302                    
P 31   7434.976475  23799.202713  -8514.535213    305.967248                    
V 31  -1723.524146  11218.941489  29734.253596     -0.013078                    
P 32  22008.248270  -1237.341452  14380.418913    -68.853188                    
V 32 -14436.429143  12019.586566  23606.910281      0.106146                    
EOF
